[{"OBJECT_NAME":"LEMUR-2-LAILA","OBJECT_ID":"2025-276DQ","EPOCH":"2026-03-09T17:30:24.523200","MEAN_MOTION":15.2007121,"ECCENTRICITY":0.00022825,"INCLINATION":97.4243,"RA_OF_ASC_NODE":144.1425,"ARG_OF_PERICENTER":132.0154,"MEAN_ANOMALY":228.1276,"EPHEMERIS_TYPE":0,"CLASSIFICATION_TYPE":"U","NORAD_CAT_ID":66776,"ELEMENT_SET_NO":999,"REV_AT_EPOCH":1533,"BSTAR":0.00035559412,"MEAN_MOTION_DOT":7.609e-5,"MEAN_MOTION_DDOT":0},{"OBJECT_NAME":"NOAA 16 DEB","OBJECT_ID":"2000-055FH","EPOCH":"2026-03-09T12:30:03.934368","MEAN_MOTION":15.16827851,"ECCENTRICITY":0.00080503,"INCLINATION":98.9144,"RA_OF_ASC_NODE":269.3218,"ARG_OF_PERICENTER":278.4203,"MEAN_ANOMALY":81.6113,"EPHEMERIS_TYPE":0,"CLASSIFICATION_TYPE":"U","NORAD_CAT_ID":41257,"ELEMENT_SET_NO":999,"REV_AT_EPOCH":52995,"BSTAR":0.010284054,"MEAN_MOTION_DOT":0.00208024,"MEAN_MOTION_DDOT":0}]
